[{"OBJECT_NAME":"KUIPER-00028","OBJECT_ID":"2025-088T","EPOCH":"2026-03-04T08:41:10.281984","MEAN_MOTION":14.80003574,"ECCENTRICITY":6.24e-5,"INCLINATION":51.8989,"RA_OF_ASC_NODE":116.6123,"ARG_OF_PERICENTER":77.0276,"MEAN_ANOMALY":283.0756,"EPHEMERIS_TYPE":0,"CLASSIFICATION_TYPE":"U","NORAD_CAT_ID":63741,"ELEMENT_SET_NO":999,"REV_AT_EPOCH":4727,"BSTAR":0.00051058,"MEAN_MOTION_DOT":3.68e-5,"MEAN_MOTION_DDOT":0},{"OBJECT_NAME":"KUIPER-00029","OBJECT_ID":"2025-088U","EPOCH":"2026-03-04T10:38:23.599680","MEAN_MOTION":14.83608419,"ECCENTRICITY":7.05e-5,"INCLINATION":51.9007,"RA_OF_ASC_NODE":113.9122,"ARG_OF_PERICENTER":99.8509,"MEAN_ANOMALY":260.2535,"EPHEMERIS_TYPE":0,"CLASSIFICATION_TYPE":"U","NORAD_CAT_ID":63742,"ELEMENT_SET_NO":999,"REV_AT_EPOCH":4684,"BSTAR":0.00096965,"MEAN_MOTION_DOT":7.854e-5,"MEAN_MOTION_DDOT":0},{"OBJECT_NAME":"KUIPER-00030","OBJECT_ID":"2025-088V","EPOCH":"2026-03-04T09:02:43.965600","MEAN_MOTION":14.79939403,"ECCENTRICITY":0.0010476,"INCLINATION":51.8974,"RA_OF_ASC_NODE":134.0356,"ARG_OF_PERICENTER":57.1843,"MEAN_ANOMALY":303.0127,"EPHEMERIS_TYPE":0,"CLASSIFICATION_TYPE":"U","NORAD_CAT_ID":63743,"ELEMENT_SET_NO":999,"REV_AT_EPOCH":4684,"BSTAR":-0.00012136,"MEAN_MOTION_DOT":-1.15e-5,"MEAN_MOTION_DDOT":0},{"OBJECT_NAME":"KUIPER-00031","OBJECT_ID":"2025-088W","EPOCH":"2026-03-04T10:48:36.931680","MEAN_MOTION":14.83605448,"ECCENTRICITY":0.0002205,"INCLINATION":51.8994,"RA_OF_ASC_NODE":118.9941,"ARG_OF_PERICENTER":128.1228,"MEAN_ANOMALY":231.9935,"EPHEMERIS_TYPE":0,"CLASSIFICATION_TYPE":"U","NORAD_CAT_ID":63744,"ELEMENT_SET_NO":999,"REV_AT_EPOCH":4677,"BSTAR":0.00098459,"MEAN_MOTION_DOT":7.978e-5,"MEAN_MOTION_DDOT":0},{"OBJECT_NAME":"KUIPER-00032","OBJECT_ID":"2025-088X","EPOCH":"2026-03-04T08:05:54.997440","MEAN_MOTION":15.37109379,"ECCENTRICITY":0.0005313,"INCLINATION":51.8699,"RA_OF_ASC_NODE":50.1004,"ARG_OF_PERICENTER":92.7924,"MEAN_ANOMALY":267.3671,"EPHEMERIS_TYPE":0,"CLASSIFICATION_TYPE":"U","NORAD_CAT_ID":63745,"ELEMENT_SET_NO":999,"REV_AT_EPOCH":4872,"BSTAR":0.0006787,"MEAN_MOTION_DOT":0.00024737,"MEAN_MOTION_DDOT":0},{"OBJECT_NAME":"KUIPER-00033","OBJECT_ID":"2025-088Y","EPOCH":"2026-03-04T10:25:19.861824","MEAN_MOTION":14.83400226,"ECCENTRICITY":8.31e-5,"INCLINATION":51.9006,"RA_OF_ASC_NODE":149.2249,"ARG_OF_PERICENTER":43.8687,"MEAN_ANOMALY":316.2343,"EPHEMERIS_TYPE":0,"CLASSIFICATION_TYPE":"U","NORAD_CAT_ID":63746,"ELEMENT_SET_NO":999,"REV_AT_EPOCH":4683,"BSTAR":0.0011416,"MEAN_MOTION_DOT":9.242e-5,"MEAN_MOTION_DDOT":0},{"OBJECT_NAME":"KUIPER-00034","OBJECT_ID":"2025-088Z","EPOCH":"2026-03-04T07:43:58.502496","MEAN_MOTION":14.83554949,"ECCENTRICITY":0.000177,"INCLINATION":51.902,"RA_OF_ASC_NODE":112.063,"ARG_OF_PERICENTER":338.1324,"MEAN_ANOMALY":21.9564,"EPHEMERIS_TYPE":0,"CLASSIFICATION_TYPE":"U","NORAD_CAT_ID":63747,"ELEMENT_SET_NO":999,"REV_AT_EPOCH":4702,"BSTAR":0.00094221,"MEAN_MOTION_DOT":7.615e-5,"MEAN_MOTION_DDOT":0},{"OBJECT_NAME":"KUIPER-00035","OBJECT_ID":"2025-088AA","EPOCH":"2026-03-04T12:00:00.998784","MEAN_MOTION":14.83238522,"ECCENTRICITY":0.0003993,"INCLINATION":51.8991,"RA_OF_ASC_NODE":136.9391,"ARG_OF_PERICENTER":58.9797,"MEAN_ANOMALY":327.9516,"EPHEMERIS_TYPE":0,"CLASSIFICATION_TYPE":"U","NORAD_CAT_ID":63748,"ELEMENT_SET_NO":999,"REV_AT_EPOCH":300,"BSTAR":-0.00049597,"MEAN_MOTION_DOT":-4.319e-5,"MEAN_MOTION_DDOT":0},{"OBJECT_NAME":"KUIPER-00037","OBJECT_ID":"2025-088AB","EPOCH":"2026-03-04T10:36:06.897600","MEAN_MOTION":14.79903678,"ECCENTRICITY":0.0001052,"INCLINATION":51.9,"RA_OF_ASC_NODE":136.2674,"ARG_OF_PERICENTER":39.5446,"MEAN_ANOMALY":320.5593,"EPHEMERIS_TYPE":0,"CLASSIFICATION_TYPE":"U","NORAD_CAT_ID":63749,"ELEMENT_SET_NO":999,"REV_AT_EPOCH":4753,"BSTAR":0.0019735,"MEAN_MOTION_DOT":0.00014846,"MEAN_MOTION_DDOT":0},{"OBJECT_NAME":"KUIPER-00038","OBJECT_ID":"2025-088AC","EPOCH":"2026-03-04T10:59:24.958464","MEAN_MOTION":14.79937295,"ECCENTRICITY":6.76e-5,"INCLINATION":51.9021,"RA_OF_ASC_NODE":121.226,"ARG_OF_PERICENTER":85.8482,"MEAN_ANOMALY":274.2557,"EPHEMERIS_TYPE":0,"CLASSIFICATION_TYPE":"U","NORAD_CAT_ID":63750,"ELEMENT_SET_NO":999,"REV_AT_EPOCH":4674,"BSTAR":0.00061021,"MEAN_MOTION_DOT":4.434e-5,"MEAN_MOTION_DDOT":0},{"OBJECT_NAME":"KUIPER-00039","OBJECT_ID":"2025-134A","EPOCH":"2026-03-04T11:57:18.641088","MEAN_MOTION":14.79930208,"ECCENTRICITY":0.0001026,"INCLINATION":51.8998,"RA_OF_ASC_NODE":256.0498,"ARG_OF_PERICENTER":63.943,"MEAN_ANOMALY":296.1638,"EPHEMERIS_TYPE":0,"CLASSIFICATION_TYPE":"U","NORAD_CAT_ID":64500,"ELEMENT_SET_NO":999,"REV_AT_EPOCH":3930,"BSTAR":0.00071143,"MEAN_MOTION_DOT":5.206e-5,"MEAN_MOTION_DDOT":0},{"OBJECT_NAME":"KUIPER-00040","OBJECT_ID":"2025-134B","EPOCH":"2026-03-04T00:18:31.928256","MEAN_MOTION":14.79966712,"ECCENTRICITY":0.0013342,"INCLINATION":51.8999,"RA_OF_ASC_NODE":269.336,"ARG_OF_PERICENTER":246.5276,"MEAN_ANOMALY":113.4285,"EPHEMERIS_TYPE":0,"CLASSIFICATION_TYPE":"U","NORAD_CAT_ID":64501,"ELEMENT_SET_NO":999,"REV_AT_EPOCH":3907,"BSTAR":0.0019402,"MEAN_MOTION_DOT":0.00014632,"MEAN_MOTION_DDOT":0},{"OBJECT_NAME":"KUIPER-00041","OBJECT_ID":"2025-134C","EPOCH":"2026-03-03T19:32:35.308320","MEAN_MOTION":14.78700498,"ECCENTRICITY":0.000713,"INCLINATION":51.8983,"RA_OF_ASC_NODE":271.6176,"ARG_OF_PERICENTER":245.2888,"MEAN_ANOMALY":114.7331,"EPHEMERIS_TYPE":0,"CLASSIFICATION_TYPE":"U","NORAD_CAT_ID":64502,"ELEMENT_SET_NO":999,"REV_AT_EPOCH":3902,"BSTAR":0.00068539,"MEAN_MOTION_DOT":4.86e-5,"MEAN_MOTION_DDOT":0},{"OBJECT_NAME":"KUIPER-00042","OBJECT_ID":"2025-134D","EPOCH":"2026-03-03T19:30:40.235616","MEAN_MOTION":14.79864023,"ECCENTRICITY":0.0007322,"INCLINATION":51.8987,"RA_OF_ASC_NODE":267.5802,"ARG_OF_PERICENTER":260.637,"MEAN_ANOMALY":99.3764,"EPHEMERIS_TYPE":0,"CLASSIFICATION_TYPE":"U","NORAD_CAT_ID":64503,"ELEMENT_SET_NO":999,"REV_AT_EPOCH":3908,"BSTAR":0.00064321,"MEAN_MOTION_DOT":4.678e-5,"MEAN_MOTION_DDOT":0},{"OBJECT_NAME":"KUIPER-00043","OBJECT_ID":"2025-134E","EPOCH":"2026-03-03T17:40:03.115488","MEAN_MOTION":14.83786115,"ECCENTRICITY":9.237e-5,"INCLINATION":51.8998,"RA_OF_ASC_NODE":259.5065,"ARG_OF_PERICENTER":315.9393,"MEAN_ANOMALY":44.1497,"EPHEMERIS_TYPE":0,"CLASSIFICATION_TYPE":"U","NORAD_CAT_ID":64504,"ELEMENT_SET_NO":999,"REV_AT_EPOCH":3919,"BSTAR":0.00066892108,"MEAN_MOTION_DOT":5.369e-5,"MEAN_MOTION_DDOT":0},{"OBJECT_NAME":"KUIPER-00044","OBJECT_ID":"2025-134F","EPOCH":"2026-03-04T00:14:33.155808","MEAN_MOTION":14.79927713,"ECCENTRICITY":0.0007637,"INCLINATION":51.8995,"RA_OF_ASC_NODE":271.7064,"ARG_OF_PERICENTER":257.7879,"MEAN_ANOMALY":102.2229,"EPHEMERIS_TYPE":0,"CLASSIFICATION_TYPE":"U","NORAD_CAT_ID":64505,"ELEMENT_SET_NO":999,"REV_AT_EPOCH":3904,"BSTAR":-0.0021098,"MEAN_MOTION_DOT":-0.00016274,"MEAN_MOTION_DDOT":0},{"OBJECT_NAME":"KUIPER-00046","OBJECT_ID":"2025-134G","EPOCH":"2026-03-03T19:29:05.244000","MEAN_MOTION":14.79940918,"ECCENTRICITY":7.351e-5,"INCLINATION":51.8972,"RA_OF_ASC_NODE":269.0433,"ARG_OF_PERICENTER":112.5565,"MEAN_ANOMALY":247.5475,"EPHEMERIS_TYPE":0,"CLASSIFICATION_TYPE":"U","NORAD_CAT_ID":64506,"ELEMENT_SET_NO":999,"REV_AT_EPOCH":3906,"BSTAR":0.00065978612,"MEAN_MOTION_DOT":4.813e-5,"MEAN_MOTION_DDOT":0}]
